[{"OBJECT_NAME":"EXO-0","OBJECT_ID":"2023-174DK","EPOCH":"2026-03-09T17:03:04.419648","MEAN_MOTION":15.32821991,"ECCENTRICITY":0.00098779,"INCLINATION":97.3864,"RA_OF_ASC_NODE":148.9039,"ARG_OF_PERICENTER":157.1125,"MEAN_ANOMALY":203.0559,"EPHEMERIS_TYPE":0,"CLASSIFICATION_TYPE":"U","NORAD_CAT_ID":59175,"ELEMENT_SET_NO":999,"REV_AT_EPOCH":12979,"BSTAR":0.00036716083,"MEAN_MOTION_DOT":0.00011582,"MEAN_MOTION_DDOT":0},{"OBJECT_NAME":"STARLINK-36477","OBJECT_ID":"2026-003X","EPOCH":"2026-03-09T12:26:40.406208","MEAN_MOTION":15.27584482,"ECCENTRICITY":0.00016335,"INCLINATION":42.9992,"RA_OF_ASC_NODE":228.3793,"ARG_OF_PERICENTER":273.3518,"MEAN_ANOMALY":86.7146,"EPHEMERIS_TYPE":0,"CLASSIFICATION_TYPE":"U","NORAD_CAT_ID":67355,"ELEMENT_SET_NO":999,"REV_AT_EPOCH":879,"BSTAR":0.0011659963,"MEAN_MOTION_DOT":0.00031967,"MEAN_MOTION_DDOT":0}]
